CCSDS_OEM_VERS = 2.0
CREATION_DATE = 2024-09-24T11:00:53.847000000
ORIGINATOR = NONE

META_START
OBJECT_NAME = _SCPACE_OEM
OBJECT_ID = 1
CENTER_NAME = EARTH
REF_FRAME = EME2000
TIME_SYSTEM = UTC
START_TIME = 2024-09-23T00:00:00.000000000
STOP_TIME = 2024-09-24T08:00:00.000000000
INTERPOLATION = LAGRANGE
INTERPOLATION_DEGREE = 8
META_STOP

2024-09-23T20:54:00.000000000  5.252333221020787e+03  2.288770456181882e+03  4.107638341535684e+03  4.483136915552135e+00  5.395618333533500e-01 -6.014290822359118e+00
2024-09-23T20:55:00.000000000  5.510395669915813e+03  2.316440779304007e+03  3.738603636312264e+03  4.115998725775285e+00  3.824640465603475e-01 -6.282654889208882e+00
2024-09-23T20:56:00.000000000  5.745915841924041e+03  2.334634555135727e+03  3.354234243371824e+03  3.731986317099899e+00  2.237855264630121e-01 -6.525271728094947e+00
2024-09-23T20:57:00.000000000  5.957928358899295e+03  2.343276544073240e+03  2.956105722696870e+03  3.332679890844484e+00  6.418072488295826e-02 -6.741134673886472e+00
2024-09-23T20:58:00.000000000  6.145564651082248e+03  2.342330920964501e+03  2.545850754470562e+03  2.919725695563260e+00 -9.569184739097285e-02 -6.929349369801804e+00
2024-09-23T20:59:00.000000000  6.308056734982952e+03  2.331801404000663e+03  2.125152137133969e+03  2.494827700579814e+00 -2.551730613712339e-01 -7.089137597913841e+00
2024-09-23T21:00:00.000000000  6.444740378518376e+03  2.311731235114217e+03  1.695735890404924e+03  2.059740137293043e+00 -4.136048674378022e-01 -7.219839915048750e+00
2024-09-23T21:01:00.000000000  6.555057900270677e+03  2.282203037112742e+03  1.259363995081276e+03  1.616260630992107e+00 -5.703325503377387e-01 -7.320918882687215e+00
2024-09-23T21:02:00.000000000  6.638560657444657e+03  2.243338577490579e+03  8.178270296548317e+02  1.166222573327975e+00 -7.247083637606652e-01 -7.391962058389335e+00
2024-09-23T21:03:00.000000000  6.694910832779743e+03  2.195298039491053e+03  3.729357433535034e+02  7.114859953895507e-01 -8.760953175623779e-01 -7.432684070278963e+00
2024-09-23T21:04:00.000000000  6.723882790531617e+03  2.138279542850124e+03 -7.348517470982569e+01  2.539304530710830e-01 -1.023869338285224e+00 -7.442927297408897e+00
2024-09-23T21:05:00.000000000  6.725364076857884e+03  2.072518240627117e+03 -5.196052851844802e+02 -2.045539495428376e-01 -1.167421913189135e+00 -7.422662671108085e+00
2024-09-23T21:06:00.000000000  6.699355750400076e+03  1.998285240748349e+03 -9.635964071637038e+02 -6.620751963608891e-01 -1.306162779571550e+00 -7.371989404641377e+00
2024-09-23T21:07:00.000000000  6.645972042213801e+03  1.915886304335863e+03 -1.403640581915030e+03 -1.116747606125349e+00 -1.439522640224326e+00 -7.291134433917072e+00
2024-09-23T21:08:00.000000000  6.565440276348798e+03  1.825660906560837e+03 -1.837936557854692e+03 -1.566699021614131e+00 -1.566955453380825e+00 -7.180451392287085e+00
2024-09-23T21:09:00.000000000  6.458099325581523e+03  1.727980403109535e+03 -2.264708387757801e+03 -2.010080641103980e+00 -1.687941234364400e+00 -7.040418732731561e+00
2024-09-23T21:10:00.000000000  6.324398096011227e+03  1.623246554174540e+03 -2.682212406093755e+03 -2.445074720357060e+00 -1.801987922715723e+00 -6.871636980330192e+00
2024-09-23T21:11:00.000000000  6.164893409960558e+03  1.511889706719877e+03 -3.088744716972606e+03 -2.869902836055328e+00 -1.908633488472011e+00 -6.674825549920691e+00
2024-09-23T21:12:00.000000000  5.980247429639719e+03  1.394366998735863e+03 -3.482647998359825e+03 -3.282833604186533e+00 -2.007447859746918e+00 -6.450818508742495e+00
2024-09-23T21:13:00.000000000  5.771224603754189e+03  1.271160366360015e+03 -3.862318310673167e+03 -3.682189318022942e+00 -2.098034334335585e+00 -6.200559584786214e+00
2024-09-23T21:14:00.000000000  5.538688384661930e+03  1.142774567077355e+03 -4.226211426884526e+03 -4.066351739534785e+00 -2.180030762889599e+00 -5.925098064921421e+00
2024-09-23T21:15:00.000000000  5.283597170042235e+03  1.009734922782996e+03 -4.572849253096259e+03 -4.433769195551075e+00 -2.253111102670104e+00 -5.625584312071113e+00
2024-09-23T21:16:00.000000000  5.007000394014957e+03  8.725852429980085e+02 -4.900825590908446e+03 -4.782962893286977e+00 -2.316986584843114e+00 -5.303264057007295e+00
2024-09-23T21:17:00.000000000  4.710033924047807e+03  7.318855422383574e+02 -5.208811664611932e+03 -5.112532524614730e+00 -2.371406665385817e+00 -4.959472102352104e+00
2024-09-23T21:18:00.000000000  4.393915116714993e+03  5.882096789625448e+02 -5.495561316912216e+03 -5.421161146713863e+00 -2.416159810097839e+00 -4.595626086109124e+00
2024-09-23T21:19:00.000000000  4.059937823483519e+03  4.421430590754593e+02 -5.759915743345355e+03 -5.707619520948548e+00 -2.451073986995409e+00 -4.213220472596441e+00
2024-09-23T21:20:00.000000000  3.709466836590810e+03  2.942801820474784e+02 -6.000807985563438e+03 -5.970770631674458e+00 -2.476016977194338e+00 -3.813820194838681e+00
2024-09-23T21:21:00.000000000  3.343932276045882e+03  1.452222733566387e+02 -6.217266959324352e+03 -6.209573717569621e+00 -2.490896569175836e+00 -3.399053800927189e+00
2024-09-23T21:22:00.000000000  2.964823844789702e+03 -4.425074052994987e+00 -6.408420918018507e+03 -6.423087360633303e+00 -2.495660710148409e+00 -2.970606270372899e+00
2024-09-23T21:23:00.000000000  2.573684572877092e+03 -1.540543890244682e+02 -6.573500852041975e+03 -6.610471645345739e+00 -2.490297449604648e+00 -2.530211912989716e+00
2024-09-23T21:24:00.000000000  2.172104723217553e+03 -3.030587105609663e+02 -6.711843042972018e+03 -6.770990283278060e+00 -2.474834690556551e+00 -2.079648479174760e+00
2024-09-23T21:25:00.000000000  1.761715735138872e+03 -4.508338722733839e+02 -6.822891660175386e+03 -6.904012802519853e+00 -2.449339679189774e+00 -1.620731323095928e+00
2024-09-23T21:26:00.000000000  1.344183611147212e+03 -5.967809216718952e+02 -6.906200723307953e+03 -7.009017257567201e+00 -2.413918677843875e+00 -1.155306769777321e+00
2024-09-23T21:27:00.000000000  9.212023309336357e+02 -7.403084544167742e+02 -6.961435801465428e+03 -7.085592348467676e+00 -2.368716632122378e+00 -6.852447900787865e-01
2024-09-23T21:28:00.000000000  4.944872115755849e+02 -8.808349094144907e+02 -6.988375148403153e+03 -7.133438625981488e+00 -2.313916557309963e+00 -2.124311910684793e-01
2024-09-23T21:29:00.000000000  6.576816998423520e+01 -1.017790825186051e+03 -6.986910484839390e+03 -7.152368333839880e+00 -2.249738501593097e+00  2.612396938671659e-01
2024-09-23T21:30:00.000000000 -3.632169904746529e+02 -1.150621039491434e+03 -6.957047265713937e+03 -7.142305024322882e+00 -2.176438522078870e+00  7.338710142130332e-01
2024-09-23T21:31:00.000000000 -7.907292150880681e+02 -1.278786804435293e+03 -6.898904696276591e+03 -7.103283955105818e+00 -2.094307811308513e+00  1.203568820088576e+00
2024-09-23T21:32:00.000000000 -1.215034903294362e+03 -1.401767871871783e+03 -6.812715397950224e+03 -7.035453109654698e+00 -2.003671948725372e+00  1.668448363130103e+00
2024-09-23T21:33:00.000000000 -1.634412446386802e+03 -1.519064465846430e+03 -6.698824811990040e+03 -6.939073562796131e+00 -1.904890195381552e+00  2.126641271641519e+00
2024-09-23T21:34:00.000000000 -2.047159701913285e+03 -1.630199469872952e+03 -6.557689510152111e+03 -6.814518606431547e+00 -1.798354317719446e+00  2.576304044607135e+00
2024-09-23T21:35:00.000000000 -2.451600306457472e+03 -1.734720221050654e+03 -6.389875700775469e+03 -6.662271989145021e+00 -1.684487029890320e+00  3.015624484758429e+00
2024-09-23T21:36:00.000000000 -2.846090007873114e+03 -1.832200246251002e+03 -6.196057330869708e+03 -6.482926383805634e+00 -1.563740385601572e+00  3.442827652283808e+00
2024-09-23T21:37:00.000000000 -3.229023277879645e+03 -1.922241030179546e+03 -5.977013650572612e+03 -6.277181911611549e+00 -1.436594421112290e+00  3.856182110176937e+00
2024-09-23T21:38:00.000000000 -3.598839836303265e+03 -2.004473688221586e+03 -5.733626300072747e+03 -6.045844662142302e+00 -1.303555880320089e+00  4.254006482567452e+00
2024-09-23T21:39:00.000000000 -3.954030890706038e+03 -2.078560494599600e+03 -5.466876144851016e+03 -5.789825042921596e+00 -1.165156609442809e+00  4.634676318618888e+00
2024-09-23T21:40:00.000000000 -4.293145379943404e+03 -2.144196344422020e+03 -5.177839575854917e+03 -5.510135208656970e+00 -1.021951480440911e+00  4.996631471901011e+00
2024-09-23T21:41:00.000000000 -4.614795879048145e+03 -2.201110053085023e+03 -4.867684583879314e+03 -5.207885587182900e+00 -8.745162127064978e-01  5.338382953576016e+00
2024-09-23T21:42:00.000000000 -4.917664503812130e+03 -2.249065555047911e+03 -4.537666091554226e+03 -4.884280668751496e+00 -7.234450909830448e-01  5.658519575343988e+00
2024-09-23T21:43:00.000000000 -5.200508298929191e+03 -2.287862943812702e+03 -4.189121327179771e+03 -4.540614764525523e+00 -5.693488795066971e-01  5.955713704275203e+00
2024-09-23T21:44:00.000000000 -5.462164521563858e+03 -2.317339406837526e+03 -3.823464664904267e+03 -4.178267678890540e+00 -4.128526583413197e-01  6.228726994561527e+00
2024-09-23T21:45:00.000000000 -5.701555777059346e+03 -2.337369993989957e+03 -3.442181302051001e+03 -3.798699672364410e+00 -2.545931178944288e-01  6.476416931794316e+00
2024-09-23T21:46:00.000000000 -5.917694584906766e+03 -2.347868232234522e+03 -3.046822513146610e+03 -3.403446494105398e+00 -9.521609364080323e-02  6.697741650473000e+00
2024-09-23T21:47:00.000000000 -6.109687652532182e+03 -2.348786615410134e+03 -2.638998770140077e+03 -2.994112869270882e+00  6.462638145841208e-02  6.891765711430923e+00
2024-09-23T21:48:00.000000000 -6.276739861553374e+03 -2.340116871016965e+03 -2.220373456739351e+03 -2.572366318953604e+00  2.242786142197936e-01  7.057664460104376e+00
2024-09-23T21:49:00.000000000 -6.418157862633276e+03 -2.321890111135818e+03 -1.792655887948440e+03 -2.139930354929080e+00  3.830840768830017e-01  7.194728661924798e+00
2024-09-23T21:50:00.000000000 -6.533353227030585e+03 -2.294176803887344e+03 -1.357594593504419e+03 -1.698577262291650e+00  5.403881879387126e-01  7.302368218940767e+00
